[
    {
        "Altitude(m)": 622205.8300287161,
        "Argument of Periapsis(deg)": 0.0,
        "Eccentricity": 0.0,
        "Inclination(deg)": 60.0,
        "Latitude(deg)": -52.16233202026159,
        "Longitude(deg)": 112.70037306636497,
        "Mean Anomaly(deg)": -114.54550000000008,
        "RAAN(deg)": 345.0,
        "Satellite Name": "Test1 1533",
        "Satellite Number": 1533,
        "Semi-Major Axis(m)": 6980739.136638005,
        "Time(s)": 0
    },
    {
        "Altitude(m)": 622344.7367772575,
        "Argument of Periapsis(deg)": 0.00010418945913296404,
        "Eccentricity": 0.0,
        "Inclination(deg)": 60.0,
        "Latitude(deg)": -52.519911859452186,
        "Longitude(deg)": 113.48158332613927,
        "Mean Anomaly(deg)": -113.9253938545382,
        "RAAN(deg)": 344.99957995086027,
        "Satellite Name": "Test1 1533",
        "Satellite Number": 1533,
        "Semi-Major Axis(m)": 6980739.136638005,
        "Time(s)": 10
    }
]